STARLINK-30494          
1 57970U 23151G   26068.36049035 -.00001272  00000+0 -35691-4 0  9993
2 57970  43.0027 192.4566 0001155 241.5536 118.5200 15.28417441137406
STARLINK-33706          
1 63461U 25070B   26068.56574788  .00033867  00000+0  12348-2 0  9992
2 63461  42.9990 260.8327 0001980 301.9874  58.0785 15.27573082 52957
